{"type": "FeatureCollection", "features": [ {"type": "Feature", "properties": {"norad_id": 35288, "name": "COSMOS 2251 DEB", "group": "cosmos-2251-debris", "lat": -18.658515053704658, "lon": -167.13395033108893, "alt_km": 659.1390117288483, "timestamp": "2025-12-16T19:34:24.664582+00:00", "meta": {"OBJECT_NAME": "COSMOS 2251 DEB", "OBJECT_ID": "1993-036AJS", "EPOCH": "2025-12-15T08:15:30.303072", "MEAN_MOTION": 14.65486547, "ECCENTRICITY": 0.00393272, "INCLINATION": 73.9514, "RA_OF_ASC_NODE": 10.134, "ARG_OF_PERICENTER": 243.2869, "MEAN_ANOMALY": 116.4271, "EPHEMERIS_TYPE": 0, "CLASSIFICATION_TYPE": "U", "NORAD_CAT_ID": 35288, "ELEMENT_SET_NO": 999, "REV_AT_EPOCH": 87916, "BSTAR": 0.00067125427, "MEAN_MOTION_DOT": 3.647e-05, "MEAN_MOTION_DDOT": 0}, "tle": {"line1": "1 35288U 93036AJS 25349.34410073  .00003647  00000+0  67125-3 0  9995", "line2": "2 35288  73.9514  10.1340 0039327 243.2869 116.4271 14.65486547879167"}}, "geometry": {"type": "Point", "coordinates": [-167.13395033108893, -18.658515053704658]}}, {"type": "Feature", "properties": {"norad_id": 35290, "name": "COSMOS 2251 DEB", "group": "cosmos-2251-debris", "lat": -21.041898743368794, "lon": 45.050206222251695, "alt_km": 633.828204186374, "timestamp": "2025-12-16T19:34:24.664592+00:00", "meta": {"OBJECT_NAME": "COSMOS 2251 DEB", "OBJECT_ID": "1993-036AJU", "EPOCH": "2025-12-15T14:28:49.986048", "MEAN_MOTION": 14.80473727, "ECCENTRICITY": 0.00019506, "INCLINATION": 74.0058, "RA_OF_ASC_NODE": 53.7782, "ARG_OF_PERICENTER": 195.4132, "MEAN_ANOMALY": 164.6986, "EPHEMERIS_TYPE": 0, "CLASSIFICATION_TYPE": "U", "NORAD_CAT_ID": 35290, "ELEMENT_SET_NO": 999, "REV_AT_EPOCH": 88000, "BSTAR": 0.0012248752, "MEAN_MOTION_DOT": 9.351e-05, "MEAN_MOTION_DDOT": 0}, "tle": {"line1": "1 35290U 93036AJU 25349.60335632  .00009351  00000+0  12249-2 0  9998", "line2": "2 35290  74.0058  53.7782 0001950 195.4132 164.6986 14.80473727880006"}}, "geometry": {"type": "Point", "coordinates": [45.050206222251695, -21.041898743368794]}}, {"type": "Feature", "properties": {"norad_id": 35432, "name": "COSMOS 2251 DEB", "group": "cosmos-2251-debris", "lat": 56.87636115651523, "lon": 160.9026511803551, "alt_km": 495.1903693318163, "timestamp": "2025-12-16T19:34:24.664615+00:00", "meta": {"OBJECT_NAME": "COSMOS 2251 DEB", "OBJECT_ID": "1993-036AKA", "EPOCH": "2025-12-14T11:53:53.822112", "MEAN_MOTION": 15.23399104, "ECCENTRICITY": 0.00124915, "INCLINATION": 74.0198, "RA_OF_ASC_NODE": 11.8484, "ARG_OF_PERICENTER": 339.2428, "MEAN_ANOMALY": 20.8262, "EPHEMERIS_TYPE": 0, "CLASSIFICATION_TYPE": "U", "NORAD_CAT_ID": 35432, "ELEMENT_SET_NO": 999, "REV_AT_EPOCH": 87530, "BSTAR": 0.0051316466, "MEAN_MOTION_DOT": 0.00124451, "MEAN_MOTION_DDOT": 0}, "tle": {"line1": "1 35432U 93036AKA 25348.49576183  .00124451  00000+0  51316-2 0  9997", "line2": "2 35432  74.0198  11.8484 0012491 339.2428  20.8262 15.23399104875302"}}, "geometry": {"type": "Point", "coordinates": [160.9026511803551, 56.87636115651523]}}, {"type": "Feature", "properties": {"norad_id": 35433, "name": "COSMOS 2251 DEB", "group": "cosmos-2251-debris", "lat": 69.39045525819826, "lon": 20.558713999052298, "alt_km": 757.5494305832226, "timestamp": "2025-12-16T19:34:24.664627+00:00", "meta": {"OBJECT_NAME": "COSMOS 2251 DEB", "OBJECT_ID": "1993-036AKB", "EPOCH": "2025-12-10T18:27:52.031808", "MEAN_MOTION": 14.34742553, "ECCENTRICITY": 0.00254013, "INCLINATION": 74.0339, "RA_OF_ASC_NODE": 342.0559, "ARG_OF_PERICENTER": 37.4572, "MEAN_ANOMALY": 142.4072, "EPHEMERIS_TYPE": 0, "CLASSIFICATION_TYPE": "U", "NORAD_CAT_ID": 35433, "ELEMENT_SET_NO": 999, "REV_AT_EPOCH": 86552, "BSTAR": 0.00041847558, "MEAN_MOTION_DOT": 1.164e-05, "MEAN_MOTION_DDOT": 0}, "tle": {"line1": "1 35433U 93036AKB 25344.76935222  .00001164  00000+0  41848-3 0  9992", "line2": "2 35433  74.0339 342.0559 0025401  37.4572 142.4072 14.34742553865528"}}, "geometry": {"type": "Point", "coordinates": [20.558713999052298, 69.39045525819826]}}, {"type": "Feature", "properties": {"norad_id": 35434, "name": "COSMOS 2251 DEB", "group": "cosmos-2251-debris", "lat": -36.35117993985787, "lon": 38.4284615762614, "alt_km": 778.4872209128271, "timestamp": "2025-12-16T19:34:24.664638+00:00", "meta": {"OBJECT_NAME": "COSMOS 2251 DEB", "OBJECT_ID": "1993-036AKC", "EPOCH": "2025-12-13T21:29:58.278624", "MEAN_MOTION": 14.25692247, "ECCENTRICITY": 0.00874643, "INCLINATION": 74.0404, "RA_OF_ASC_NODE": 211.5388, "ARG_OF_PERICENTER": 282.0357, "MEAN_ANOMALY": 77.0999, "EPHEMERIS_TYPE": 0, "CLASSIFICATION_TYPE": "U", "NORAD_CAT_ID": 35434, "ELEMENT_SET_NO": 999, "REV_AT_EPOCH": 86134, "BSTAR": 0.00076141319, "MEAN_MOTION_DOT": 1.854e-05, "MEAN_MOTION_DDOT": 0}, "tle": {"line1": "1 35434U 93036AKC 25347.89581341  .00001854  00000+0  76141-3 0  9999", "line2": "2 35434  74.0404 211.5388 0087464 282.0357  77.0999 14.25692247861349"}}, "geometry": {"type": "Point", "coordinates": [38.4284615762614, -36.35117993985787]}}, {"type": "Feature", "properties": {"norad_id": 35435, "name": "COSMOS 2251 DEB", "group": "cosmos-2251-debris", "lat": 67.30147461159315, "lon": -127.23157008138548, "alt_km": 626.2655347476048, "timestamp": "2025-12-16T19:34:24.664649+00:00", "meta": {"OBJECT_NAME": "COSMOS 2251 DEB", "OBJECT_ID": "1993-036AKD", "EPOCH": "2025-12-15T01:40:55.350912", "MEAN_MOTION": 14.78555349, "ECCENTRICITY": 0.00077045, "INCLINATION": 74.0104, "RA_OF_ASC_NODE": 99.4797, "ARG_OF_PERICENTER": 193.6881, "MEAN_ANOMALY": 345.6328, "EPHEMERIS_TYPE": 0, "CLASSIFICATION_TYPE": "U", "NORAD_CAT_ID": 35435, "ELEMENT_SET_NO": 999, "REV_AT_EPOCH": 87573, "BSTAR": 0.0012569511, "MEAN_MOTION_DOT": 9.173e-05, "MEAN_MOTION_DDOT": 0}, "tle": {"line1": "1 35435U 93036AKD 25349.07008508  .00009173  00000+0  12570-2 0  9998", "line2": "2 35435  74.0104  99.4797 0007704 193.6881 345.6328 14.78555349875739"}}, "geometry": {"type": "Point", "coordinates": [-127.23157008138548, 67.30147461159315]}}, {"type": "Feature", "properties": {"norad_id": 35439, "name": "COSMOS 2251 DEB", "group": "cosmos-2251-debris", "lat": -34.56661283608642, "lon": -40.85506723643954, "alt_km": 889.9623423839384, "timestamp": "2025-12-16T19:34:24.664660+00:00", "meta": {"OBJECT_NAME": "COSMOS 2251 DEB", "OBJECT_ID": "1993-036AKH", "EPOCH": "2025-12-14T03:35:04.308288", "MEAN_MOTION": 13.92816223, "ECCENTRICITY": 0.02421462, "INCLINATION": 74.018, "RA_OF_ASC_NODE": 132.3236, "ARG_OF_PERICENTER": 301.3061, "MEAN_ANOMALY": 233.8403, "EPHEMERIS_TYPE": 0, "CLASSIFICATION_TYPE": "U", "NORAD_CAT_ID": 35439, "ELEMENT_SET_NO": 999, "REV_AT_EPOCH": 83980, "BSTAR": 0.0018477357, "MEAN_MOTION_DOT": 3.02e-05, "MEAN_MOTION_DDOT": 0}, "tle": {"line1": "1 35439U 93036AKH 25348.14935542  .00003020  00000+0  18477-2 0  9993", "line2": "2 35439  74.0180 132.3236 0242146 301.3061 233.8403 13.92816223839807"}}, "geometry": {"type": "Point", "coordinates": [-40.85506723643954, -34.56661283608642]}}, {"type": "Feature", "properties": {"norad_id": 35440, "name": "COSMOS 2251 DEB", "group": "cosmos-2251-debris", "lat": -34.70199311015341, "lon": -171.72059057383004, "alt_km": 623.6408438932376, "timestamp": "2025-12-16T19:34:24.664670+00:00", "meta": {"OBJECT_NAME": "COSMOS 2251 DEB", "OBJECT_ID": "1993-036AKJ", "EPOCH": "2025-12-15T07:46:28.648416", "MEAN_MOTION": 14.68828741, "ECCENTRICITY": 0.00694074, "INCLINATION": 74.0146, "RA_OF_ASC_NODE": 202.6185, "ARG_OF_PERICENTER": 342.923, "MEAN_ANOMALY": 16.9604, "EPHEMERIS_TYPE": 0, "CLASSIFICATION_TYPE": "U", "NORAD_CAT_ID": 35440, "ELEMENT_SET_NO": 999, "REV_AT_EPOCH": 68803, "BSTAR": 0.00030871729, "MEAN_MOTION_DOT": 1.836e-05, "MEAN_MOTION_DDOT": 0}, "tle": {"line1": "1 35440U 93036AKJ 25349.32394269  .00001836  00000+0  30872-3 0  9998", "line2": "2 35440  74.0146 202.6185 0069407 342.9230  16.9604 14.68828741688033"}}, "geometry": {"type": "Point", "coordinates": [-171.72059057383004, -34.70199311015341]}}, {"type": "Feature", "properties": {"norad_id": 35441, "name": "COSMOS 2251 DEB", "group": "cosmos-2251-debris", "lat": -6.614269027094869, "lon": 112.22816967888244, "alt_km": 662.2389133718825, "timestamp": "2025-12-16T19:34:24.664681+00:00", "meta": {"OBJECT_NAME": "COSMOS 2251 DEB", "OBJECT_ID": "1993-036AKK", "EPOCH": "2025-12-15T03:19:30.492768", "MEAN_MOTION": 14.62637993, "ECCENTRICITY": 0.00365994, "INCLINATION": 74.1346, "RA_OF_ASC_NODE": 293.5313, "ARG_OF_PERICENTER": 189.4895, "MEAN_ANOMALY": 170.5586, "EPHEMERIS_TYPE": 0, "CLASSIFICATION_TYPE": "U", "NORAD_CAT_ID": 35441, "ELEMENT_SET_NO": 999, "REV_AT_EPOCH": 87465, "BSTAR": 0.00095338273, "MEAN_MOTION_DOT": 4.868e-05, "MEAN_MOTION_DDOT": 0}, "tle": {"line1": "1 35441U 93036AKK 25349.13854737  .00004868  00000+0  95338-3 0  9995", "line2": "2 35441  74.1346 293.5313 0036599 189.4895 170.5586 14.62637993874658"}}, "geometry": {"type": "Point", "coordinates": [112.22816967888244, -6.614269027094869]}}, {"type": "Feature", "properties": {"norad_id": 35442, "name": "COSMOS 2251 DEB", "group": "cosmos-2251-debris", "lat": 28.66791790363453, "lon": 100.0579976878719, "alt_km": 611.3751895326814, "timestamp": "2025-12-16T19:34:24.664691+00:00", "meta": {"OBJECT_NAME": "COSMOS 2251 DEB", "OBJECT_ID": "1993-036AKL", "EPOCH": "2025-12-15T06:14:28.124736", "MEAN_MOTION": 14.84554813, "ECCENTRICITY": 0.00037066, "INCLINATION": 74.0274, "RA_OF_ASC_NODE": 94.1345, "ARG_OF_PERICENTER": 78.0277, "MEAN_ANOMALY": 282.1317, "EPHEMERIS_TYPE": 0, "CLASSIFICATION_TYPE": "U", "NORAD_CAT_ID": 35442, "ELEMENT_SET_NO": 999, "REV_AT_EPOCH": 87390, "BSTAR": 0.0013919969, "MEAN_MOTION_DOT": 0.00011734, "MEAN_MOTION_DDOT": 0}, "tle": {"line1": "1 35442U 93036AKL 25349.26004774  .00011734  00000+0  13920-2 0  9994", "line2": "2 35442  74.0274  94.1345 0003706  78.0277 282.1317 14.84554813873901"}}, "geometry": {"type": "Point", "coordinates": [100.0579976878719, 28.66791790363453]}}]}